start=new Date('2022-01-20T00:00:00.000Z').valueOf();
sats=[{"MEAN_MOTION_DOT":"0.00005541","OBJECT_ID":"2021-044AA","REV_AT_EPOCH":"3622","MEAN_MOTION_DDOT":"0.0000000000000","PERIOD":"95.593","CENTER_NAME":"EARTH","LAUNCH_DATE":"2021-05-26","CLASSIFICATION_TYPE":"U","MEAN_ELEMENT_THEORY":"SGP4","NORAD_CAT_ID":"48662","MEAN_MOTION":"15.06380184","DECAY_DATE":null,"APOAPSIS":"548.233","TLE_LINE1":"1 48662U 21044AA  22019.46275990  .00005541  00000-0  39081-3 0  9992","MEAN_ANOMALY":"282.3515","OBJECT_NAME":"STARLINK-2726","EPHEMERIS_TYPE":"0","RA_OF_ASC_NODE":"51.2951","GP_ID":"194194752","SEMIMAJOR_AXIS":"6925.409","BSTAR":"0.00039081000000","COUNTRY_CODE":"US","INCLINATION":"53.0563","ECCENTRICITY":"0.00013840","TIME_SYSTEM":"UTC","FILE":"3277432","TLE_LINE2":"2 48662  53.0563  51.2951 0001384  77.7629 282.3515 15.06380184 36222","SITE":"AFETR","PERIAPSIS":"546.316","ARG_OF_PERICENTER":"77.7629","REF_FRAME":"TEME","ELEMENT_SET_NO":"999","OBJECT_TYPE":"PAYLOAD","EPOCH":"2022-01-19T11:06:22.455360","RCS_SIZE":"LARGE"},{"PERIAPSIS":"546.266","TLE_LINE2":"2 48663  53.0562  51.0001 0001419  71.2657 288.8486 15.06388407 36230","SITE":"AFETR","ARG_OF_PERICENTER":"71.2657","TIME_SYSTEM":"UTC","FILE":"3277432","OBJECT_TYPE":"PAYLOAD","EPOCH":"2022-01-19T12:36:34.909056","RCS_SIZE":"LARGE","REF_FRAME":"TEME","ELEMENT_SET_NO":"999","GP_ID":"194194000","RA_OF_ASC_NODE":"51.0001","SEMIMAJOR_AXIS":"6925.384","BSTAR":"0.00015817000000","EPHEMERIS_TYPE":"0","ECCENTRICITY":"0.00014190","COUNTRY_CODE":"US","INCLINATION":"53.0562","CLASSIFICATION_TYPE":"U","LAUNCH_DATE":"2021-05-26","MEAN_ELEMENT_THEORY":"SGP4","MEAN_MOTION_DDOT":"0.0000000000000","PERIOD":"95.593","CENTER_NAME":"EARTH","APOAPSIS":"548.232","TLE_LINE1":"1 48663U 21044AB  22019.52540404  .00002075  00000-0  15817-3 0  9995","OBJECT_NAME":"STARLINK-2667","MEAN_ANOMALY":"288.8486","NORAD_CAT_ID":"48663","MEAN_MOTION":"15.06388407","DECAY_DATE":null,"MEAN_MOTION_DOT":"0.00002075","OBJECT_ID":"2021-044AB","REV_AT_EPOCH":"3623"},{"REF_FRAME":"TEME","ELEMENT_SET_NO":"999","OBJECT_TYPE":"PAYLOAD","EPOCH":"2022-01-19T18:53:24.492192","RCS_SIZE":"LARGE","TIME_SYSTEM":"UTC","FILE":"3277781","TLE_LINE2":"2 48664  53.0572  49.8376 0001374  72.8755 287.2385 15.06396030 37174","PERIAPSIS":"546.274","SITE":"AFETR","ARG_OF_PERICENTER":"72.8755","COUNTRY_CODE":"US","INCLINATION":"53.0572","ECCENTRICITY":"0.00013740","EPHEMERIS_TYPE":"0","GP_ID":"194199064","RA_OF_ASC_NODE":"49.8376","SEMIMAJOR_AXIS":"6925.361","BSTAR":"0.00025597000000","NORAD_CAT_ID":"48664","MEAN_MOTION":"15.06396030","DECAY_DATE":null,"APOAPSIS":"548.177","TLE_LINE1":"1 48664U 21044AC  22019.78708903  .00003533  00000-0  25597-3 0  9990","MEAN_ANOMALY":"287.2385","OBJECT_NAME":"STARLINK-2709","MEAN_MOTION_DDOT":"0.0000000000000","PERIOD":"95.592","CENTER_NAME":"EARTH","LAUNCH_DATE":"2021-05-26","CLASSIFICATION_TYPE":"U","MEAN_ELEMENT_THEORY":"SGP4","MEAN_MOTION_DOT":"0.00003533","OBJECT_ID":"2021-044AC","REV_AT_EPOCH":"3717"},{"OBJECT_ID":"2021-044AD","REV_AT_EPOCH":"3622","MEAN_MOTION_DOT":"-0.00001883","APOAPSIS":"548.266","MEAN_ANOMALY":"294.8958","TLE_LINE1":"1 48665U 21044AD  22019.46917647 -.00001883  00000-0 -10756-3 0  9992","OBJECT_NAME":"STARLINK-2653","MEAN_MOTION":"15.06386820","DECAY_DATE":null,"NORAD_CAT_ID":"48665","CLASSIFICATION_TYPE":"U","LAUNCH_DATE":"2021-05-26","MEAN_ELEMENT_THEORY":"SGP4","MEAN_MOTION_DDOT":"0.0000000000000","CENTER_NAME":"EARTH","PERIOD":"95.593","ECCENTRICITY":"0.00014620","INCLINATION":"53.0575","COUNTRY_CODE":"US","SEMIMAJOR_AXIS":"6925.389","BSTAR":"-0.00010756000000","RA_OF_ASC_NODE":"51.2639","GP_ID":"194194502","EPHEMERIS_TYPE":"0","RCS_SIZE":"MEDIUM","OBJECT_TYPE":"PAYLOAD","EPOCH":"2022-01-19T11:15:36.847008","REF_FRAME":"TEME","ELEMENT_SET_NO":"999","PERIAPSIS":"546.241","TLE_LINE2":"2 48665  53.0575  51.2639 0001462  65.2183 294.8958 15.06386820 36227","SITE":"AFETR","ARG_OF_PERICENTER":"65.2183","FILE":"3277432","TIME_SYSTEM":"UTC"},{"REF_FRAME":"TEME","ELEMENT_SET_NO":"999","RCS_SIZE":"LARGE","OBJECT_TYPE":"PAYLOAD","EPOCH":"2022-01-19T18:25:32.913120","FILE":"3277666","TIME_SYSTEM":"UTC","SITE":"AFETR","TLE_LINE2":"2 48666  53.0561  49.9147 0001528  64.1882 295.9264 15.06380330 37164","PERIAPSIS":"546.216","ARG_OF_PERICENTER":"64.1882","INCLINATION":"53.0561","COUNTRY_CODE":"US","ECCENTRICITY":"0.00015280","EPHEMERIS_TYPE":"0","SEMIMAJOR_AXIS":"6925.409","BSTAR":"0.00015272000000","RA_OF_ASC_NODE":"49.9147","GP_ID":"194197099","MEAN_MOTION":"15.06380330","DECAY_DATE":null,"NORAD_CAT_ID":"48666","APOAPSIS":"548.332","TLE_LINE1":"1 48666U 21044AE  22019.76774205  .00001993  00000-0  15272-3 0  9995","MEAN_ANOMALY":"295.9264","OBJECT_NAME":"STARLINK-2666","MEAN_MOTION_DDOT":"0.0000000000000","PERIOD":"95.593","CENTER_NAME":"EARTH","LAUNCH_DATE":"2021-05-26","CLASSIFICATION_TYPE":"U","MEAN_ELEMENT_THEORY":"SGP4","OBJECT_ID":"2021-044AE","REV_AT_EPOCH":"3716","MEAN_MOTION_DOT":"0.00001993"},{"COUNTRY_CODE":"US","INCLINATION":"53.0558","ECCENTRICITY":"0.00013970","EPHEMERIS_TYPE":"0","GP_ID":"194198764","RA_OF_ASC_NODE":"49.8419","BSTAR":"0.00039454000000","SEMIMAJOR_AXIS":"6925.339","ELEMENT_SET_NO":"999","REF_FRAME":"TEME","EPOCH":"2022-01-19T18:48:06.239520","OBJECT_TYPE":"PAYLOAD","RCS_SIZE":"LARGE","TIME_SYSTEM":"UTC","FILE":"3277741","ARG_OF_PERICENTER":"71.7450","TLE_LINE2":"2 48667  53.0558  49.8419 0001397  71.7450 288.3691 15.06403003 37119","SITE":"AFETR","PERIAPSIS":"546.237","MEAN_MOTION_DOT":"0.00005600","REV_AT_EPOCH":"3711","OBJECT_ID":"2021-044AF","NORAD_CAT_ID":"48667","DECAY_DATE":null,"MEAN_MOTION":"15.06403003","TLE_LINE1":"1 48667U 21044AF  22019.78340555  .00005600  00000-0  39454-3 0  9992","OBJECT_NAME":"STARLINK-2735","MEAN_ANOMALY":"288.3691","APOAPSIS":"548.172","PERIOD":"95.592","CENTER_NAME":"EARTH","MEAN_MOTION_DDOT":"0.0000000000000","MEAN_ELEMENT_THEORY":"SGP4","CLASSIFICATION_TYPE":"U","LAUNCH_DATE":"2021-05-26"},{"ELEMENT_SET_NO":"999","REF_FRAME":"TEME","EPOCH":"2022-01-19T18:42:49.435776","OBJECT_TYPE":"PAYLOAD","RCS_SIZE":"LARGE","TIME_SYSTEM":"UTC","FILE":"3277741","ARG_OF_PERICENTER":"77.1374","PERIAPSIS":"546.352","TLE_LINE2":"2 48668  53.0568  49.8638 0001295  77.1374 282.9760 15.06388633 37170","SITE":"AFETR","COUNTRY_CODE":"US","INCLINATION":"53.0568","ECCENTRICITY":"0.00012950","EPHEMERIS_TYPE":"0","GP_ID":"194198456","RA_OF_ASC_NODE":"49.8638","BSTAR":"0.00018314000000","SEMIMAJOR_AXIS":"6925.383","NORAD_CAT_ID":"48668","DECAY_DATE":null,"MEAN_MOTION":"15.06388633","TLE_LINE1":"1 48668U 21044AG  22019.77973884  .00002447  00000-0  18314-3 0  9997","MEAN_ANOMALY":"282.9760","OBJECT_NAME":"STARLINK-2738","APOAPSIS":"548.145","PERIOD":"95.593","CENTER_NAME":"EARTH","MEAN_MOTION_DDOT":"0.0000000000000","MEAN_ELEMENT_THEORY":"SGP4","CLASSIFICATION_TYPE":"U","LAUNCH_DATE":"2021-05-26","MEAN_MOTION_DOT":"0.00002447","REV_AT_EPOCH":"3717","OBJECT_ID":"2021-044AG"},{"ELEMENT_SET_NO":"999","REF_FRAME":"TEME","RCS_SIZE":"LARGE","EPOCH":"2022-01-19T12:15:20.046816","OBJECT_TYPE":"PAYLOAD","FILE":"3277432","TIME_SYSTEM":"UTC","ARG_OF_PERICENTER":"87.6698","SITE":"AFETR","TLE_LINE2":"2 48669  53.0550  51.0677 0001356  87.6698 272.4446 15.06403334 36229","PERIAPSIS":"546.264","INCLINATION":"53.0550","COUNTRY_CODE":"US","ECCENTRICITY":"0.00013560","EPHEMERIS_TYPE":"0","BSTAR":"0.00004012600000","SEMIMAJOR_AXIS":"6925.338","RA_OF_ASC_NODE":"51.0677","GP_ID":"194195002","DECAY_DATE":null,"MEAN_MOTION":"15.06403334","NORAD_CAT_ID":"48669","OBJECT_NAME":"STARLINK-2707","TLE_LINE1":"1 48669U 21044AH  22019.51064869  .00000316  00000-0  40126-4 0  9994","MEAN_ANOMALY":"272.4446","APOAPSIS":"548.142","PERIOD":"95.592","CENTER_NAME":"EARTH","MEAN_MOTION_DDOT":"0.0000000000000","MEAN_ELEMENT_THEORY":"SGP4","CLASSIFICATION_TYPE":"U","LAUNCH_DATE":"2021-05-26","REV_AT_EPOCH":"3622","OBJECT_ID":"2021-044AH","MEAN_MOTION_DOT":"0.00000316"},{"LAUNCH_DATE":"2021-05-26","CLASSIFICATION_TYPE":"U","MEAN_ELEMENT_THEORY":"SGP4","MEAN_MOTION_DDOT":"0.0000000000000","CENTER_NAME":"EARTH","PERIOD":"95.593","APOAPSIS":"548.169","TLE_LINE1":"1 48670U 21044AJ  22019.50697194  .00001612  00000-0  12715-3 0  9990","MEAN_ANOMALY":"289.0470","OBJECT_NAME":"STARLINK-2763","NORAD_CAT_ID":"48670","MEAN_MOTION":"15.06386358","DECAY_DATE":null,"MEAN_MOTION_DOT":"0.00001612","OBJECT_ID":"2021-044AJ","REV_AT_EPOCH":"3622","TLE_LINE2":"2 48670  53.0548  51.0838 0001319  71.0662 289.0470 15.06386358 36221","PERIAPSIS":"546.342","SITE":"AFETR","ARG_OF_PERICENTER":"71.0662","TIME_SYSTEM":"UTC","FILE":"3277432","OBJECT_TYPE":"PAYLOAD","EPOCH":"2022-01-19T12:10:02.375616","RCS_SIZE":"LARGE","REF_FRAME":"TEME","ELEMENT_SET_NO":"999","GP_ID":"194194753","RA_OF_ASC_NODE":"51.0838","SEMIMAJOR_AXIS":"6925.390","BSTAR":"0.00012715000000","EPHEMERIS_TYPE":"0","ECCENTRICITY":"0.00013190","COUNTRY_CODE":"US","INCLINATION":"53.0548"},{"INCLINATION":"53.0566","COUNTRY_CODE":"US","ECCENTRICITY":"0.00012700","EPHEMERIS_TYPE":"0","SEMIMAJOR_AXIS":"6925.359","BSTAR":"0.00027945000000","RA_OF_ASC_NODE":"49.9167","GP_ID":"194198791","REF_FRAME":"TEME","ELEMENT_SET_NO":"999","RCS_SIZE":"LARGE","OBJECT_TYPE":"PAYLOAD","EPOCH":"2022-01-19T18:26:52.286208","FILE":"3277742","TIME_SYSTEM":"UTC","PERIAPSIS":"546.344","TLE_LINE2":"2 48671  53.0566  49.9167 0001270  64.5490 295.5630 15.06396692 37105","SITE":"AFETR","ARG_OF_PERICENTER":"64.5490","OBJECT_ID":"2021-044AK","REV_AT_EPOCH":"3710","MEAN_MOTION_DOT":"0.00003883","MEAN_MOTION":"15.06396692","DECAY_DATE":null,"NORAD_CAT_ID":"48671","APOAPSIS":"548.103","OBJECT_NAME":"STARLINK-2745","TLE_LINE1":"1 48671U 21044AK  22019.76866072  .00003883  00000-0  27945-3 0  9995","MEAN_ANOMALY":"295.5630","MEAN_MOTION_DDOT":"0.0000000000000","CENTER_NAME":"EARTH","PERIOD":"95.592","CLASSIFICATION_TYPE":"U","LAUNCH_DATE":"2021-05-26","MEAN_ELEMENT_THEORY":"SGP4"}];
